STARLINK-1503           
1 45745U 20038R   24294.43547086  .00044151  00000+0  29595-2 0  9992
2 45745  53.0549 344.7916 0001635  77.4464 282.6708 15.06461249240034
STARLINK-1504           
1 45746U 20038S   24294.49880277  .00018618  00000+0  10025-2 0  9998
2 45746  53.0536 338.7352 0001946  29.2929 330.8172 15.14876175240122
STARLINK-1506           
1 45747U 20038T   24294.45389868  .00027562  00000+0  18599-2 0  9997
2 45747  53.0542 344.7099 0001325  94.1928 265.9212 15.06442465240042
STARLINK-1507           
1 45748U 20038U   24294.33371754  .00051467  00000+0  18793-2 0  9997
2 45748  53.0542 326.6795 0008285 352.5442   7.5432 15.27613727240283
STARLINK-1391           
1 45750U 20038W   24294.40413351  .00031747  00000+0  21381-2 0  9994
2 45750  53.0542 324.9311 0001693  90.4731 269.6452 15.06443951240321
STARLINK-1464           
1 45751U 20038X   24294.53316576  .00031628  00000+0  21315-2 0  9995
2 45751  53.0543 324.3518 0001942  82.6003 277.5206 15.06420345240347
STARLINK-1476           
1 45753U 20038Z   24294.41151298  .00030643  00000+0  20654-2 0  9993
2 45753  53.0536 324.8982 0001552  92.1563 267.9604 15.06430806240321
STARLINK-1477           
1 45754U 20038AA  24294.41519564  .00012732  00000+0  87137-3 0  9997
2 45754  53.0546 324.8823 0001567  88.6664 271.4504 15.06431518240325
STARLINK-1478           
1 45755U 20038AB  24294.36728645  .00027187  00000+0  18358-2 0  9992
2 45755  53.0550 325.0963 0001679 104.2160 255.9015 15.06424714240301
STARLINK-1484           
1 45756U 20038AC  24294.35216975  .00031048  00000+0  14212-2 0  9996
2 45756  53.0552 312.4794 0003403  45.9208 314.2067 15.20265014240484
STARLINK-1486           
1 45757U 20038AD  24294.58334491  .00199148  00000+0  23784-2 0  9996
2 45757  53.0712 240.9147 0008200  85.0106 189.7112 15.59834160  5977
STARLINK-1487           
1 45758U 20038AE  24294.88078280  .00046126  00000+0  10655-2 0  9991
2 45758  53.0348 241.4269 0002266  73.3500 286.7753 15.42086663242654
STARLINK-1493           
1 45759U 20038AF  24294.35622169  .00037480  00000+0  25192-2 0  9990
2 45759  53.0541 325.1483 0001347  77.9930 282.1210 15.06436876240307
STARLINK-1494           
1 45760U 20038AG  24294.49260130  .00024559  00000+0  16594-2 0  9992
2 45760  53.0536 324.5320 0001199 116.0169 244.0943 15.06455433240333
STARLINK-1499           
1 45762U 20038AJ  24294.58334491  .00255291  00000+0  23372-2 0  9997
2 45762  53.0022 213.5069 0005711  79.8339  94.4915 15.66453558  5978
STARLINK-1502           
1 45764U 20038AL  24294.32304474  .00014819  00000+0  10111-2 0  9995
2 45764  53.0547 325.2943 0001573  87.1423 272.9746 15.06420188240313
STARLINK-1509           
1 45766U 20038AN  24294.91667824  .00248199  00000+0  13820-2 0  9993
2 45766  53.0325 202.4683 0007454  83.0260 245.5349 15.78186870243015
STARLINK-1511           
1 45767U 20038AP  24294.91667824  .00223453  00000+0  24139-2 0  9995
2 45767  53.0426 271.1391 0009677  34.8398   9.6491 15.62341652242045
STARLINK-1459           
1 45769U 20038AR  24294.91667824  .00450288  91826-4  11687-2 0  9990
2 45769  53.0438 313.0261 0010563  42.2554 142.4156 15.94422925241631
STARLINK-1463           
1 45771U 20038AT  24294.30645841  .00019247  00000+0  13063-2 0  9996
2 45771  53.0538 305.3696 0001556  90.9845 269.1322 15.06432795240579
STARLINK-1470           
1 45772U 20038AU  24294.36175823  .00030110  00000+0  20304-2 0  9999
2 45772  53.0538 305.1207 0001490  92.9596 267.1563 15.06422931240596
STARLINK-1482           
1 45773U 20038AV  24294.35437609  .00013070  00000+0  89422-3 0  9995
2 45773  53.0532 305.1553 0001696 110.4651 249.6520 15.06420432240593
STARLINK-1485           
1 45774U 20038AW  24294.32488679  .00019520  00000+0  13246-2 0  9992
2 45774  53.0551 305.2897 0001458  90.3759 269.7397 15.06431647240582
STARLINK-1488           
1 45775U 20038AX  24294.58334491  .00433017  00000+0  15735-2 0  9999
2 45775  53.0592 193.1787 0006254 121.8851 275.8205 15.86845048  6074
STARLINK-1489           
1 45776U 20038AY  24294.37822089  .00250492  00000+0  91289-2 0  9994
2 45776  53.0542 288.7435 0008701   2.4247 357.6792 15.26614236241947
STARLINK-1490           
1 45777U 20038AZ  24294.91667824  .00168187  00000+0  23749-2 0  9994
2 45777  53.0257 229.8371 0008050  86.0150 142.6888 15.55474851242829
STARLINK-1491           
1 45778U 20038BA  24294.30550515  .00002037  00000+0  15558-3 0  9997
2 45778  53.0548 305.2849 0001535  93.2657 266.8508 15.06407886240573
STARLINK-1492           
1 45779U 20038BB  24294.91667824  .00083329  00000+0  10122-2 0  9991
2 45779  53.0164 195.6526 0006546 102.8447 115.5187 15.59870691243282
STARLINK-1496           
1 45780U 20038BC  24294.32120657  .00020656  00000+0  14005-2 0  9994
2 45780  53.0549 305.3037 0001698  94.7165 265.4018 15.06427916240574
STARLINK-1497           
1 45781U 20038BD  24294.32998185  .00082746  00000+0  51772-2 0  9994
2 45781  53.0542 305.0858 0003377  66.3751 293.7593 15.08689355241514
STARLINK-1498           
1 45782U 20038BE  24294.91667824  .00198026  00000+0  15045-2 0  9995
2 45782  53.0390 192.1822 0010576  98.5519  48.6637 15.71131640243179
STARLINK-1505           
1 45783U 20038BF  24294.91667824  .00552007  14011-3  12156-2 0  9990
2 45783  53.0436 277.7086 0006571  86.0662  82.8200 15.97487526241959
STARLINK-1510           
1 45784U 20038BG  24294.30845401  .00049363  00000+0  26644-2 0  9995
2 45784  53.0557 303.1862 0006157  38.4701 321.6730 15.14268180240611
STARLINK-1512           
1 45785U 20038BH  24294.91667824  .00228110  00000+0  23978-2 0  9990
2 45785  53.0470 270.0360 0008902  47.1153  66.6892 15.63034805242053
STARLINK-1513           
1 45786U 20038BJ  24294.41703307  .00016626  00000+0  11315-2 0  9992
2 45786  53.0540 304.8769 0001755  84.1369 275.9820 15.06430722240600
STARLINK-1517           
1 45787U 20038BK  24294.35807633  .00025306  00000+0  17111-2 0  9998
2 45787  53.0531 305.1374 0001388 102.7167 257.3977 15.06412674241516
STARLINK-1522           
1 46027U 20055A   24294.86211582  .00021959  00000+0  14891-2 0  9995
2 46027  53.0538 232.8715 0000753  37.7178 322.3864 15.06385208232284
STARLINK-1523           
1 46028U 20055B   24294.27973930  .00057201  00000+0  38213-2 0  9996
2 46028  53.0548 235.4932 0001604 103.8234 256.2933 15.06464957232720
STARLINK-1526           
1 46029U 20055C   24294.86949114  .00028034  00000+0  18930-2 0  9995
2 46029  53.0553 232.8466 0001680 115.5568 244.5595 15.06408994232299
STARLINK-1534           
1 46030U 20055D   24294.82157668  .00004036  00000+0  28966-3 0  9995
2 46030  53.0539 233.0605 0002073  94.0220 266.1006 15.06405907232283
STARLINK-1544           
1 46031U 20055E   24294.15080722  .00016116  00000+0  10979-2 0  9994
2 46031  53.0538 236.6483 0001434  93.5027 266.6126 15.06415575232173
STARLINK-1555           
1 46032U 20055F   24294.85474286  .00024489  00000+0  16574-2 0  9993
2 46032  53.0554 232.9099 0001252  98.3139 261.7992 15.06396228232281
STARLINK-1556           
1 46033U 20055G   24294.10648950  .00050453  00000+0  33753-2 0  9991
2 46033  53.0544 236.2716 0001381  91.1371 268.9776 15.06472277232666
STARLINK-1557           
1 46034U 20055H   24294.84000275  .00037399  00000+0  25159-2 0  9990
2 46034  53.0546 232.9735 0001406  84.8431 275.2719 15.06406582232289
STARLINK-1558           
1 46035U 20055J   24294.84738265  .00032396  00000+0  21836-2 0  9998
2 46035  53.0557 232.9447 0001802  84.4955 275.6239 15.06402533232282
STARLINK-1560           
1 46036U 20055K   24294.83264244  .00022524  00000+0  15257-2 0  9991
2 46036  53.0554 233.0056 0001490 102.2640 257.8515 15.06411774232287
STARLINK-1565           
1 46037U 20055L   24294.23031062  .00177040  00000+0  99654-2 0  9993
2 46037  53.0511 234.9977 0006537 124.4173 235.7437 15.11972107232205
STARLINK-1567           
1 46038U 20055M   24294.11386931  .00015181  00000+0  10353-2 0  9995
2 46038  53.0540 236.2392 0001538 152.0844 208.0227 15.06420395232179
STARLINK-1569           
1 46039U 20055N   24294.12123946  .00061821  00000+0  41267-2 0  9992
2 46039  53.0545 236.2019 0001068  94.0585 266.0526 15.06456575232171
STARLINK-1580           
1 46041U 20055Q   24294.82528254  .00027941  00000+0  18871-2 0  9993
2 46041  53.0531 233.1299 0002041  93.8696 266.2527 15.06402994232288
STARLINK-1581           
1 46042U 20055R   24294.86582491  .00023910  00000+0  16186-2 0  9990
2 46042  53.0541 232.8531 0002250 103.2442 256.8798 15.06399807232296
STARLINK-1582           
1 46043U 20055S   24294.85844039  .00022918  00000+0  15533-2 0  9991
2 46043  53.0547 232.8921 0002335  86.0799 274.0457 15.06379214232286
STARLINK-1591           
1 46045U 20055U   24294.22076032  .00056678  00000+0  37868-2 0  9999
2 46045  53.0549 235.7587 0001474 108.1695 251.9455 15.06465283232682
STARLINK-1524           
1 46047U 20055W   24294.83723406  .00021572  00000+0  14623-2 0  9991
2 46047  53.0546 222.9892 0001674  98.9599 261.1580 15.06409590232422
STARLINK-1527           
1 46048U 20055X   24294.83356670  .00011559  00000+0  79433-3 0  9992
2 46048  53.0551 223.0049 0001627  96.6475 263.4699 15.06367174232428
STARLINK-1540           
1 46051U 20055AA  24294.80037351  .00041900  00000+0  28136-2 0  9991
2 46051  53.0542 223.1542 0001288  86.9634 273.1502 15.06420147232424
STARLINK-1541           
1 46052U 20055AB  24294.12217115  .00056834  00000+0  37987-2 0  9991
2 46052  53.0543 226.1968 0001424  93.4650 266.6502 15.06449225232801
STARLINK-1543           
1 46053U 20055AC  24294.78932978  .00015299  00000+0  10437-2 0  9996
2 46053  53.0546 223.2056 0001765 105.9734 254.1450 15.06401861232416
STARLINK-1548           
1 46054U 20055AD  24294.79669940  .00009737  00000+0  67167-3 0  9997
2 46054  53.0542 223.1741 0001456 101.8013 258.3139 15.06398689232395
